24793,IRIDIUM 7,1997,100.33,-1.0,-,86.4,Inactive,0,LEO,USA,USA,Unknown,Unknown,Unknown,1 24793U 97020B   24177.45501861  .00000492  00000+0  16508-3 0  9991,2 24793  86.3964 326.3686 0001970  97.5383 262.6037 14.35263583420719,14.35263583,0.000197,LEO
24795,IRIDIUM 5,1997,96.77,-1.0,-,86.39,Inactive,0,LEO,USA,USA,Unknown,Unknown,Unknown,1 24795U 97020D   24177.62089820  .00003045  00000+0  28743-3 0  9999,2 24795  86.3917 247.2041 0119853 333.3840  26.1262 14.88018961432323,14.88018961,0.0119853,LEO
24796,IRIDIUM 4,1997,100.27,-1.0,-,86.4,Inactive,0,LEO,USA,USA,Unknown,Unknown,Unknown,1 24796U 97020E   24177.45654174  .00000516  00000+0  17029-3 0  9996,2 24796  86.3959 323.4814 0001984  90.8498 269.2926 14.36190097421255,14.36190097,0.0001984,LEO
24836,IRIDIUM 914,1997,100.0,-1.0,-,86.39,Inactive,0,LEO,Kazakhstan,USA,Unknown,Unknown,Unknown,1 24836U 97030A   24177.53450845  .00000605  00000+0  18576-3 0  9997,2 24836  86.3941 333.1037 0001583  36.5102 323.6204 14.40053034555784,14.40053034,0.0001583,LEO
24841,IRIDIUM 16,1997,100.14,-1.0,-,86.4,Inactive,0,LEO,Kazakhstan,USA,Unknown,Unknown,Unknown,1 24841U 97030F   24177.52261798  .00000556  00000+0  17756-3 0  9993,2 24841  86.4038 355.1056 0003574 123.3975 236.7565 14.37942504415737,14.37942504,0.0003574,LEO
24842,IRIDIUM 911,1997,99.54,-1.0,-,86.45,Inactive,0,LEO,Kazakhstan,USA,Unknown,Unknown,Unknown,1 24842U 97030G   24177.53814509  .00000728  00000+0  19618-3 0  9999,2 24842  86.4464 354.2178 0013450 198.4716 161.6000 14.46591638423508,14.46591638,0.001345,LEO
24870,IRIDIUM 17,1997,100.21,-1.0,-,86.4,Inactive,0,LEO,USA,USA,Unknown,Unknown,Unknown,1 24870U 97034B   24177.49698561  .00000500  00000+0  16190-3 0  9997,2 24870  86.3960  24.7033 0003746  93.1020 267.0606 14.37036552412346,14.37036552,0.0003746,LEO
24871,IRIDIUM 920,1997,99.95,-1.0,-,86.4,Inactive,0,LEO,USA,USA,Unknown,Unknown,Unknown,1 24871U 97034C   24177.62314168  .00000540  00000+0  16268-3 0  9991,2 24871  86.3979   4.7129 0011804 167.8788 192.2698 14.40752914415226,14.40752914,0.0011804,LEO
